{
"type": "FeatureCollection",
"name": "sql_statement",
"crs": { "type": "name", "properties": { "name": "urn:ogc:def:crs:OGC:1.3:CRS84" } },
"features": [
{ "type": "Feature", "properties": { "clave": "ACO", "nombre": "Acolman" }, "geometry": { "type": "Point", "coordinates": [ -98.912002563476562, 19.635501861572266 ] } },
{ "type": "Feature", "properties": { "clave": "AJU", "nombre": "Ajusco" }, "geometry": { "type": "Point", "coordinates": [ -99.162612915039062, 19.154285430908203 ] } },
{ "type": "Feature", "properties": { "clave": "AJM", "nombre": "Ajusco Medio" }, "geometry": { "type": "Point", "coordinates": [ -99.207740783691406, 19.272161483764648 ] } },
{ "type": "Feature", "properties": { "clave": "ATI", "nombre": "Atizapan" }, "geometry": { "type": "Point", "coordinates": [ -99.254135131835938, 19.576963424682617 ] } },
{ "type": "Feature", "properties": { "clave": "BJU", "nombre": "Benito Juarez" }, "geometry": { "type": "Point", "coordinates": [ -99.150909423828125, 19.371675491333008 ] } },
{ "type": "Feature", "properties": { "clave": "CAM", "nombre": "Camarones" }, "geometry": { "type": "Point", "coordinates": [ -99.169792175292969, 19.468404769897461 ] } },
{ "type": "Feature", "properties": { "clave": "CCA", "nombre": "Centro de Ciencias Atmosfericas" }, "geometry": { "type": "Point", "coordinates": [ -99.176101684570312, 19.326200485229492 ] } },
{ "type": "Feature", "properties": { "clave": "TEC", "nombre": "Cerro del Tepeyac" }, "geometry": { "type": "Point", "coordinates": [ -99.114227294921875, 19.487226486206055 ] } },
{ "type": "Feature", "properties": { "clave": "CHO", "nombre": "Chalco" }, "geometry": { "type": "Point", "coordinates": [ -98.886085510253906, 19.266948699951172 ] } },
{ "type": "Feature", "properties": { "clave": "COR", "nombre": "Corena" }, "geometry": { "type": "Point", "coordinates": [ -99.026039123535156, 19.265346527099609 ] } },
{ "type": "Feature", "properties": { "clave": "CUA", "nombre": "Cuajimalpa" }, "geometry": { "type": "Point", "coordinates": [ -99.291702270507812, 19.365312576293945 ] } },
{ "type": "Feature", "properties": { "clave": "CUT", "nombre": "Cuajimalpa" }, "geometry": { "type": "Point", "coordinates": [ -99.210243225097656, 19.646780014038086 ] } },
{ "type": "Feature", "properties": { "clave": "DIC", "nombre": "Diconsa" }, "geometry": { "type": "Point", "coordinates": [ -99.185775756835938, 19.298818588256836 ] } },
{ "type": "Feature", "properties": { "clave": "EAJ", "nombre": "Ecoguardas Ajusco" }, "geometry": { "type": "Point", "coordinates": [ -99.203971862792969, 19.271221160888672 ] } },
{ "type": "Feature", "properties": { "clave": "EDL", "nombre": "Ex Convento Desierto de los Leones" }, "geometry": { "type": "Point", "coordinates": [ -99.310638427734375, 19.313356399536133 ] } },
{ "type": "Feature", "properties": { "clave": "FAC", "nombre": "Fes Acatlan" }, "geometry": { "type": "Point", "coordinates": [ -99.243522644042969, 19.482473373413086 ] } },
{ "type": "Feature", "properties": { "clave": "FAR", "nombre": "FES Aragon" }, "geometry": { "type": "Point", "coordinates": [ -99.046173095703125, 19.483692169189453 ] } },
{ "type": "Feature", "properties": { "clave": "GAM", "nombre": "Gustavo A. MDERO" }, "geometry": { "type": "Point", "coordinates": [ -99.094650268554688, 19.482757568359375 ] } },
{ "type": "Feature", "properties": { "clave": "HGM", "nombre": "Hospital General de Mexico" }, "geometry": { "type": "Point", "coordinates": [ -99.152206420898438, 19.411617279052734 ] } },
{ "type": "Feature", "properties": { "clave": "INN", "nombre": "Investigaciones Nucleares" }, "geometry": { "type": "Point", "coordinates": [ -99.380523681640625, 19.291967391967773 ] } },
{ "type": "Feature", "properties": { "clave": "IZT", "nombre": "Iztacalco" }, "geometry": { "type": "Point", "coordinates": [ -99.117637634277344, 19.38441276550293 ] } },
{ "type": "Feature", "properties": { "clave": "LPR", "nombre": "La Presa" }, "geometry": { "type": "Point", "coordinates": [ -99.117721557617188, 19.534727096557617 ] } },
{ "type": "Feature", "properties": { "clave": "LAA", "nombre": "Laboratorio de Analisis Ambiental" }, "geometry": { "type": "Point", "coordinates": [ -99.147308349609375, 19.483781814575195 ] } },
{ "type": "Feature", "properties": { "clave": "IBM", "nombre": "Legaria" }, "geometry": { "type": "Point", "coordinates": [ -99.215362548828125, 19.443319320678711 ] } },
{ "type": "Feature", "properties": { "clave": "LOM", "nombre": "Lomas" }, "geometry": { "type": "Point", "coordinates": [ -99.2420654296875, 19.402999877929688 ] } },
{ "type": "Feature", "properties": { "clave": "LLA", "nombre": "Los Laureles" }, "geometry": { "type": "Point", "coordinates": [ -99.039642333984375, 19.578792572021484 ] } },
{ "type": "Feature", "properties": { "clave": "MER", "nombre": "Merced" }, "geometry": { "type": "Point", "coordinates": [ -99.119590759277344, 19.424610137939453 ] } },
{ "type": "Feature", "properties": { "clave": "MGH", "nombre": "Miguel Hidalgo" }, "geometry": { "type": "Point", "coordinates": [ -99.202659606933594, 19.404050827026367 ] } },
{ "type": "Feature", "properties": { "clave": "MPA", "nombre": "Milpa Alta" }, "geometry": { "type": "Point", "coordinates": [ -99.011322021484375, 19.200712203979492 ] } },
{ "type": "Feature", "properties": { "clave": "MON", "nombre": "Montecillo" }, "geometry": { "type": "Point", "coordinates": [ -98.902854919433594, 19.460414886474609 ] } },
{ "type": "Feature", "properties": { "clave": "MCM", "nombre": "Museo de la Ciudad de Mexico" }, "geometry": { "type": "Point", "coordinates": [ -99.131927490234375, 19.429071426391602 ] } },
{ "type": "Feature", "properties": { "clave": "NEZ", "nombre": "Nezahualcoyotl" }, "geometry": { "type": "Point", "coordinates": [ -99.028213500976562, 19.393733978271484 ] } },
{ "type": "Feature", "properties": { "clave": "PED", "nombre": "Pedregal" }, "geometry": { "type": "Point", "coordinates": [ -99.204139709472656, 19.325145721435547 ] } },
{ "type": "Feature", "properties": { "clave": "SAG", "nombre": "San Agustin" }, "geometry": { "type": "Point", "coordinates": [ -99.030326843261719, 19.532968521118164 ] } },
{ "type": "Feature", "properties": { "clave": "SNT", "nombre": "San Nicolas Totolapan" }, "geometry": { "type": "Point", "coordinates": [ -99.256462097167969, 19.250385284423828 ] } },
{ "type": "Feature", "properties": { "clave": "SFE", "nombre": "Santa Fe" }, "geometry": { "type": "Point", "coordinates": [ -99.262863159179688, 19.357357025146484 ] } },
{ "type": "Feature", "properties": { "clave": "SAC", "nombre": "Santiago Acahualtepec" }, "geometry": { "type": "Point", "coordinates": [ -99.009384155273438, 19.345609664916992 ] } },
{ "type": "Feature", "properties": { "clave": "TAH", "nombre": "Tlahuac" }, "geometry": { "type": "Point", "coordinates": [ -99.010566711425781, 19.246458053588867 ] } },
{ "type": "Feature", "properties": { "clave": "TLA", "nombre": "Tlalnepantla" }, "geometry": { "type": "Point", "coordinates": [ -99.204597473144531, 19.529077529907227 ] } },
{ "type": "Feature", "properties": { "clave": "TLI", "nombre": "Tultutlan" }, "geometry": { "type": "Point", "coordinates": [ -99.177169799804688, 19.602542877197266 ] } },
{ "type": "Feature", "properties": { "clave": "UIZ", "nombre": "UAM Iztaplapa" }, "geometry": { "type": "Point", "coordinates": [ -99.073883056640625, 19.360794067382812 ] } },
{ "type": "Feature", "properties": { "clave": "UAX", "nombre": "UAM Xochimilco" }, "geometry": { "type": "Point", "coordinates": [ -99.103630065917969, 19.304441452026367 ] } },
{ "type": "Feature", "properties": { "clave": "VIF", "nombre": "Villa de la Flores" }, "geometry": { "type": "Point", "coordinates": [ -99.096588134765625, 19.658222198486328 ] } },
{ "type": "Feature", "properties": { "clave": "XAL", "nombre": "Xalostoc" }, "geometry": { "type": "Point", "coordinates": [ -99.0823974609375, 19.525995254516602 ] } }
]
}
